XRISM                   
1 57800U 23137A   24117.88670923  .00011180  00000+0  85843-3 0  9995
2 57800  31.0038 339.0137 0009790  57.5340 302.6241 15.00538689 34978
